# PICSAT                  
1 43132U 18004X   18064.72633772  .00001185  00000-0  54437-4 0  9994
2 43132  97.5471 127.0770 0011743 100.0415 260.2147 15.22334695  7974 
